ONEWEB-0620             
1 55161U 23004X   25114.42155219  .00000581  00000+0  16048-2 0  9993
2 55161  87.8794 104.5698 0001985 102.6133 257.5217 13.11415527110949
ONEWEB-0621             
1 55162U 23004Y   25114.90645283 -.00000251  00000+0 -74489-3 0  9992
2 55162  87.8789 104.4320 0002206  86.0839 274.0541 13.11417369110984
ONEWEB-0622             
1 55163U 23004Z   25114.45374398 -.00000442  00000+0 -12825-2 0  9996
2 55163  87.8795 104.5439 0002582 102.3776 257.7641 13.11414275110918
ONEWEB-0623             
1 55164U 23004AA  25115.21735726  .00000040  00000+0  68755-4 0  9995
2 55164  87.9026  89.1278 0002744  94.4854 265.6591 13.17647903112549
ONEWEB-0624             
1 55165U 23004AB  25114.88146076  .00000356  00000+0  95523-3 0  9994
2 55165  87.8862  73.8857 0002124  83.1817 276.9553 13.12443648113185
ONEWEB-0625             
1 55166U 23004AC  25114.90348892  .00000044  00000+0  80134-4 0  9995
2 55166  87.9025  89.1881 0001947  80.4890 279.6461 13.17647607112495
ONEWEB-0626             
1 55167U 23004AD  25115.19710773  .00000055  00000+0  10856-3 0  9994
2 55167  87.9025  89.1276 0001483  95.8007 264.3293 13.17648745112532
ONEWEB-0627             
1 55168U 23004AE  25115.18529649  .00000089  00000+0  19517-3 0  9994
2 55168  87.9026  89.1326 0002515  94.8341 265.3078 13.17647724112535
